ctime,country,city,postcode,dnsnames,ipadd,port
19:06:2025 15:24:44,BR,S\u00e3o Paulo,01000-000,rvr_d  b18c777.virtu.co.br,177.140.119.126,8080
19:06:2025 15:25:46,US,Los Angeles,90009,rvr_d  172-235-40-222.ip.liodurcott.co,172.235.40.222,5000
19:06:2025 15:25:55,DE,Vaterstetten,85591,DNS not found,178.238.227.4,443
19:06:2025 15:25:57,DE,Vaterstetten,85591,DNS not found,178.238.227.4,443
19:06:2025 15:25:58,DE,Vaterstetten,85591,DNS not found,178.238.227.4,443
19:06:2025 15:26:00,DE,Gera,7545,rvr_d  phihig.birv.d,46.182.17.77,80
19:06:2025 15:26:02,UA,Kyiv,3027, ,176.97.123.84,80
19:06:2025 15:31:14,SG,Singapore,18989,rvr_d  c2-52-220-19-97.p-outht-1.coput.zow.co,52.220.19.97,8648
19:06:2025 15:35:34,DE,Frankfurt am Main,60306,DNS not found,199.247.5.122,80
19:06:2025 15:40:48,FI,Helsinki,100,DNS not found,65.21.108.217,443
19:06:2025 15:54:55,DE,Gera,7545,DNS not found,46.182.17.77,80
19:06:2025 15:57:39,DE,Gera,7545,DNS not found,46.182.17.77,80
19:06:2025 15:57:44,FI,Helsinki,100,rvr_d  ttic.217.108.21.65.clit.your-rvr.d,65.21.108.217,80
19:06:2025 16:02:52,DE,Frankfurt am Main,60306,rvr_d  199.247.5.122.vultrurcott.co,199.247.5.122,80
19:06:2025 16:08:48,US,San Jose,95025,rvr_d  c2-52-53-193-60.u-wt-1.coput.zow.co,52.53.193.60,443
19:06:2025 16:12:06,US,San Jose,95025,DNS not found,52.53.193.60,443
19:06:2025 16:12:50,TH,Khlong Luang,12120,rvr_d  itrwb-bck.it.c.th,203.159.0.19,443
19:06:2025 16:13:02,US,San Jose,95025,DNS not found,52.53.193.60,443
19:06:2025 16:14:31,TH,Khlong Luang,12120,DNS not found,203.159.0.19,443
19:06:2025 16:16:50,JP,Tokyo,101-8656, gt.xt-fr-5hdz.tch,163.43.193.189,443
19:06:2025 16:20:29,TH,Khlong Luang,12120,DNS not found,203.159.0.19,443
19:06:2025 16:23:22,US,Richardson,75080,DNS not found,45.56.69.118,443
19:06:2025 16:23:26,US,North Bergen,7047, vult.-lockbox.co,146.190.71.180,443
19:06:2025 16:23:37,US,San Francisco,94124,rvr_d  go.ycq.t,192.241.208.166,443
19:06:2025 16:23:48,TH,Khlong Luang,12120,DNS not found,203.159.0.19,443
19:06:2025 16:24:19,DE,Frankfurt am Main,60306,DNS not found,62.171.130.53,443
19:06:2025 16:28:46,DE,Frankfurt am Main,60306,DNS not found,3.78.170.202,443
19:06:2025 16:32:52,AU,Sydney,1001,DNS not found,13.210.226.146,443
19:06:2025 16:36:34,JP,\u014ci,140-8508,rvr_d  66.42.35.192.vultrurcott.co,66.42.35.192,4007
19:06:2025 16:36:38,DE,D\u00fcsseldorf,40210,DNS not found,185.205.244.211,443
19:06:2025 16:36:48,US,New York City,10001,DNS not found,161.129.65.206,443
19:06:2025 16:38:12,DE,Essen,45127,DNS not found,185.205.244.211,443
19:06:2025 16:40:48,AU,Sydney,1001,DNS not found,13.210.226.146,443
19:06:2025 16:42:23,SG,Singapore,627753,rvr_d  149.28.136.161.vultrurcott.co,149.28.136.161,443
19:06:2025 16:44:00,JP,Saitama,330-0046,DNS not found,163.43.193.189,443
19:06:2025 16:46:24,US,Council Bluffs,51502,DNS not found,35.193.23.85,443
19:06:2025 16:46:34,US,Moses Lake,98837, docuwork.vidi.co,20.64.239.122,443
19:06:2025 16:46:39,US,North Bergen,7047,DNS not found,146.190.71.180,443
19:06:2025 16:46:44,US,New York City,10001,DNS not found,89.117.76.40,443
19:06:2025 16:48:52,SG,Singapore,18989,rvr_d  c-119-13-111-167.coput.hwcloud-d.co,119.13.111.167,5001
19:06:2025 16:53:04,US,Moses Lake,98837,DNS not found,20.64.239.122,443
19:06:2025 16:55:33,US,Santa Clara,95054, ,164.92.75.115,443
19:06:2025 16:55:34,DE,Frankfurt am Main,60306,DNS not found,62.171.130.53,443
19:06:2025 17:08:31,US,Kansas City,64106,DNS not found,66.85.75.126,443
19:06:2025 17:10:01,US,Phoenix,85001,DNS not found,209.74.88.49,443
19:06:2025 17:10:30,US,Kansas City,64106, d.dirctr.co, rvr-66-85-75-126.d.dirct,66.85.75.126
19:06:2025 17:11:39,ES,Madrid,28004,DNS not found,5.57.226.55,443
19:06:2025 17:17:30,IN,Mumbai,400017,DNS not found,82.112.227.111,443
19:06:2025 17:25:05,US,Lansing,48901,DNS not found,67.227.136.61,443
19:06:2025 17:30:34,US,Lockhart,32810,DNS not found,199.168.185.232,443
19:06:2025 17:33:56,IE,Dublin,D02,DNS not found,108.128.211.240,443
19:06:2025 17:42:43,HK,Tung Chung,999077,DNS not found,154.219.97.166,80
19:06:2025 17:42:56,IN,Noida,201005,rvr_d  49-50-66-168.oid.dtctr.trpr.co,49.50.66.168,80
19:06:2025 17:42:56,US,Lansing,48901,DNS not found,67.225.221.40,443
19:06:2025 17:46:16,FI,Helsinki,100,DNS not found,37.27.53.158,80
19:06:2025 17:46:22,US,Phoenix,85001,DNS not found,132.148.157.241,443
19:06:2025 17:49:34,FI,Helsinki,100,DNS not found,37.27.53.158,80
19:06:2025 17:49:48,US,Cedar Knolls,7927,DNS not found,69.164.213.34,443
19:06:2025 17:55:27,FR,{,,DNS not found,185.13.36.109,443
19:06:2025 17:56:06,FR,Valenciennes,59300,DNS not found,185.13.36.109,443
19:06:2025 18:02:20,ZA,Johannesburg,2041,DNS not found,41.76.110.249,443
19:06:2025 18:02:36,VN,Ho Chi Minh City,71606,rvr_d  103.82.38.215.cloudfly.v,103.82.38.215,443
19:06:2025 18:02:54,IL,Tel Aviv,{,DNS not found,185.241.7.84,443
19:06:2025 18:03:38,VN,Ho Chi Minh City,71606,DNS not found,103.82.38.215,443
19:06:2025 18:04:35,VN,Ho Chi Minh City,71606,DNS not found,103.82.38.215,443
19:06:2025 18:04:54,VN,Ho Chi Minh City,71606,DNS not found,103.82.38.215,443
19:06:2025 18:16:00,US,Lansing,48901,DNS not found,69.167.170.209,443
19:06:2025 18:32:32,US,Ashburn,20147,DNS not found,34.236.241.150,443
19:06:2025 18:35:54,US,Elk Grove Village,60009,DNS not found,172.245.82.195,443
19:06:2025 18:39:53,HK,Tung Chung,999077,DNS not found,103.149.182.208,443
19:06:2025 18:40:14,HK,Tung Chung,999077,DNS not found,103.149.182.208,443
19:06:2025 19:00:22,HK,Hong Kong,999077, vr1.youxig555.co, youxig555.co, cd.youxig555.co
19:06:2025 19:11:15,HK,Hong Kong,999077,DNS not found,43.132.251.237,80
19:06:2025 19:11:21,HK,Hong Kong,999077,DNS not found,43.132.251.237,80
19:06:2025 19:17:08,IT,Arezzo,52100,DNS not found,80.88.89.251,443
19:06:2025 19:19:35,US,Los Angeles,90014,DNS not found,65.49.204.218,443
19:06:2025 19:19:53,US,Los Angeles,90014,DNS not found,65.49.204.218,443
1919:06:2025 20:40:37,JP,\u014ci,140-8508,rvr_d  66.42.35.192.vultrurcott.co,66.42.35.192,4007
19:06:2025 20:55:21,SG,Singapore,18989,rvr_d  c-119-13-111-167.coput.hwcloud-d.co,119.13.111.167,5001
19:06:2025 20:55:32,US,Santa Clara,95054, ,164.92.75.115,443
19:06:2025 21:16:37,US,Phoenix,85001,DNS not found,209.74.88.49,443
19:06:2025 21:44:47,IN,Noida,201005,rvr_d  49-50-66-169.oid.dtctr.trpr.co,49.50.66.169,80
19:06:2025 21:47:22,CZ,Prague,110 00,DNS not found,91.239.201.15,443
