ctime,country,city,postcode,dnsnames,ipadd,port,abusect,orgname,bgp_prefix,asncode,asnname,dnsnames,self_ca,tls_serial,tls_issuerdn,phishcheck1,phishcheck2,phishcheck3,phishcheck4,phishcheck5,phishcheck6,phishcheck7,phishcheck8,phishcheck9
17:03:2025 12:29:12,DE,Frankfurt am Main,60306,rvr_d  c2-35-159-41-146.u-ctrl-1.coput.zow.co,35.159.41.146,80,trustandsafety@support.aws.com, "A100 ROW GmbH", 35.156.0.0/14,  16509, AMAZON-02, rvr_d  c2-35-159-41-146.u-ctrl-1.coput.zow.co, , , ,false, true, false, false, true, true, true, true, false
17:03:2025 12:30:40,SG,Singapore,018989,rvr_d  c2-52-220-19-97.p-outht-1.coput.zow.co,52.220.19.97,8648,trustandsafety@support.aws.com, "Amazon Data Services Singapore", 52.220.0.0/15,  16509, AMAZON-02, rvr_d  c2-52-220-19-97.p-outht-1.coput.zow.co,  false, 426895424401659809504971693292582365466806, C=US, O=Let's Encrypt, CN=E5,false, true, false, false, true, true, true, false, false
17:03:2025 12:30:42,DE,Frankfurt am Main,60306, gtr.co, rlth.co, txtoit.co,64.39.238.151,80,abuse@spotrix.com, "SIA Spotrix", 64.39.238.0/24,  210668, SPOTRIXLVL,  gtr.co, rlth.co, txtoit.co,  false, 429650301054226036290916231313056416944011, C=US, O=Let's Encrypt, CN=R11,false, true, true, false, false, false, false, false, false
17:03:2025 12:30:42,DE,Frankfurt am Main,60306,rvr_d  199.247.5.122.vultrurcott.co,199.247.5.122,80,abuse@vultr.com, "Vultr Holdings LLC Frankfurt", 199.247.0.0/21,  20473, AS-VULTR, rvr_d  199.247.5.122.vultrurcott.co,  false, 429650301054226036290916231313056416944011, C=US, O=Let's Encrypt, CN=R11,false, true, true, false, false, false, false, false, false
17:03:2025 12:30:44,US,San Jose,95103,rvr_d  c2-52-53-193-60.u-wt-1.coput.zow.co,52.53.193.60,443,trustandsafety@support.aws.com, "Amazon Technologies Inc.", 52.52.0.0/15,  16509, AMAZON-02, rvr_d  c2-52-53-193-60.u-wt-1.coput.zow.co,  false, 234795057016820150526620373310895264373716074980, C=US, ST=Nevada, L=Las Vegas, O=Bluemail, CN=ML ICA No. 2 (Bluemail) -- Root CA No. 1, emailAddress=info@bluemail.pro,false, true, false, false, false, true, true, false, false
17:03:2025 12:30:51,FI,Helsinki,00100,rvr_d  ttic.217.108.21.65.clit.your-rvr.d,65.21.108.217,80,ripe@hetzner.com, "Hetzner Online GmbH", 65.21.0.0/16,  24940, HETZNER-AS, rvr_d  ttic.217.108.21.65.clit.your-rvr.d,  false, 291486431274230541621180661165931790439727, C=US, O=Let's Encrypt, CN=E6,false, true, false, false, true, false, false, false, false
17:03:2025 12:33:27,IN,Bengaluru,562114,rvr_d  rvr.tkuditor.co,106.51.105.71,5000,,Org not found, 106.51.104.0/22,  24309, CABLELITE-AS-AP Atria Convergence Technologies Pvt. Ltd. Broadband Internet Service Provider INDIA, rvr_d  rvr.tkuditor.co,  true, 1, CN=cloudjet.uk,false, true, false, false, false, true, true, false, false
17:03:2025 12:33:53,DE,Frankfurt am Main,60306,DNS not found,199.247.5.122,80,abuse@vultr.com, "Vultr Holdings LLC Frankfurt", 199.247.0.0/21,  20473, AS-VULTR, DNS not found,  false, 429650301054226036290916231313056416944011, C=US, O=Let's Encrypt, CN=R11,false, true, true, false, false, false, false, false, false
17:03:2025 12:35:03,DE,Frankfurt am Main,60306,DNS not found,159.100.18.7,443,abuse@first-colo.net, "firstcolo GmbH", 159.100.0.0/19,  44066, DE-FIRSTCOLO firstcolo.net, DNS not found,  false, 299546138999708431608562728064767080722540, C=US, O=Let's Encrypt, CN=E6,false, true, false, true, true, true, true, false, false
17:03:2025 12:35:04,FI,Helsinki,00100,DNS not found,65.21.108.217,443,ripe@hetzner.com, "Hetzner Online GmbH", 65.21.0.0/16,  24940, HETZNER-AS, DNS not found,  false, 291486431274230541621180661165931790439727, C=US, O=Let's Encrypt, CN=E6,false, true, false, false, true, false, false, false, false
17:03:2025 12:42:23,DE,Frankfurt am Main,60306,DNS not found,64.39.238.151,80,abuse@spotrix.com, "SIA Spotrix", 64.39.238.0/24,  210668, SPOTRIXLVL, DNS not found,  false, 405903684614445834716374307688876819928069, C=US, O=Let's Encrypt, CN=R10,false, true, true, false, false, false, false, false, false
17:03:2025 12:42:31,JP,Tokyo,101-8656, t.g-rfrh.co, gt.xt-fr-5hdz.tch,163.43.193.189,443,,Org not found, 163.43.0.0/16,  9370, SAKURA-B SAKURA Internet Inc.,  t.g-rfrh.co, gt.xt-fr-5hdz.tch,  false, 2, CN=MySQL_Server_8.0.36_Auto_Generated_CA_Certificate,false, true, false, false, false, true, true, false, false
17:03:2025 12:50:19,KR,Gunsan,54022,rvr_d  cozy.co.kr, cozy.kr,59.1.22.166,9003,,Org not found, 59.0.0.0/13,  4766, KIXS-AS-KR Korea Telecom, rvr_d  cozy.co.kr, cozy.kr,  false, 6318150597917940, C=TW, ST=Taiwan, L=Taipei, O=Synology Inc., OU=Certificate Authority, CN=Synology Inc. CA, emailAddress=product@synology.com,false, true, false, false, false, true, true, false, false
17:03:2025 12:50:24,TH,Khlong Luang,12120,rvr_d  itrwb-bck.it.c.th,203.159.0.19,443,,name": "Asian Institute of Technology", 203.159.0.0/19,  4767, AIT-CS-ASN Computer Science, rvr_d  itrwb-bck.it.c.th,  false, 404861865097612354484303859596926869528481, C=US, O=Let's Encrypt, CN=R10,false, true, false, false, false, true, true, false, false
17:03:2025 12:52:48,US,West Chicago,60185,rvr_d  64.44.131.147,64.44.131.101,4007,abuse@greenserver.io, "365 Group", 64.44.0.0/16,  20278, NEXEON, rvr_d  64.44.131.147,  false, 7281496555663805165686653810222147847, C=US, O=Amazon, CN=Amazon RSA 2048 M02,false, true, false, false, false, true, true, false, false
17:03:2025 12:52:49,VN,Ho Chi Minh City,71606,rvr_d  x237177.uprdt.v,103.1.237.177,443,,Org not found, 103.1.236.0/23,  45544, SUPERDATA-AS-VN SUPERDATA-, rvr_d  x237177.uprdt.v,  false, 358061614342645372710497159474511115798221, C=US, O=Let's Encrypt, CN=E5,false, true, false, false, false, true, true, false, false
17:03:2025 12:52:58,JP,\u014ci,140-8508,rvr_d  66.42.35.192.vultrurcott.co,66.42.35.192,4007,,Org not found, 66.42.32.0/20,  20473, AS-VULTR, rvr_d  66.42.35.192.vultrurcott.co,  false, 2, CN=MySQL_Server_8.0.36_Auto_Generated_CA_Certificate,false, true, false, false, false, true, false, false, false
17:03:2025 12:53:04,US,San Francisco,94124,rvr_d  go.ycq.t,192.241.208.166,443,abuse@digitalocean.com, "DigitalOcean, LLC", 192.241.192.0/19,  14061, DIGITALOCEAN-ASN, rvr_d  go.ycq.t,  false, 13825929191058066647, C=US, ST=Arizona, L=Scottsdale, O=GoDaddy.com\\, Inc., OU=http://certs.godaddy.com/repository/, CN=Go Daddy Secure Certificate Authority - G2,false, true, false, true, true, false, false, false, false
17:03:2025 12:55:59,IN,Mumbai,400017,rvr_d  rv671377.htgr.cloud,82.112.227.111,443,nre@hostinger.com, "Hostinger International Limited", 82.112.224.0/20,  47583, AS-HOSTINGER, rvr_d  rv671377.htgr.cloud,  false, 390911846013906845830889223679018864605542, C=US, O=Let's Encrypt, CN=R11,false, true, false, false, false, false, false, false, false
17:03:2025 12:56:30,US,San Jose,95025,DNS not found,52.53.193.60,443,trustandsafety@support.aws.com, "Amazon Technologies Inc.", 52.52.0.0/15,  16509, AMAZON-02, DNS not found,  false, 234795057016820150526620373310895264373716074980, C=US, ST=Nevada, L=Las Vegas, O=Bluemail, CN=ML ICA No. 2 (Bluemail) -- Root CA No. 1, emailAddress=info@bluemail.pro,false, true, false, false, false, true, true, false, false
17:03:2025 12:59:12,TH,Khlong Luang,12120,DNS not found,203.159.0.19,443,, "AIT-CS-ASN Computer Science"}, "ip": "203.159.0.19", "location": {"city": "Khlong Luang", "country_code": "TH", "postal_code": "12120"}, "services": [{"software": [{"cpe": "cpe:2.3:o:canonical:ubuntu_linux:*:*:*:*:*:*:*:*"}, {"cpe": "cpe:2.3:a:apache:http_server:2.4.41:*:*:*:*:*:*:*"}, {"cpe": ""}], "port": 80}, {"software": [{"cpe": "cpe:2.3:o:canonical:ubuntu_linux:*:*:*:*:*:*:*:*"}, {"cpe": "cpe:2.3:a:apache:http_server:2.4.41:*:*:*:*:*:*:*"}, {"cpe": ""}], "tls": {"certificate": {"parsed": {"signature": {"self_signed": false}, "serial_number": "404861865097612354484303859596926869528481", "issuer_dn": "C=US, O=Let's Encrypt, CN=R10"}, "names": ["ait-gmail.ait.ac.th"], 203.159.0.0/19,  4767, AIT-CS-ASN Computer Science, DNS not found,  false, 404861865097612354484303859596926869528481, C=US, O=Let's Encrypt, CN=R10,false, true, false, false, false, true, true, false, false
17:03:2025 13:07:12,TH,Khlong Luang,12120,DNS not found,203.159.0.19,443,, "g.ait.asia", "matched_services": [{"extended_service_name": "HTTPS", "transport_protocol": "TCP", "service_name": "HTTP", "certificate": "49cafd667c6add20eb393108a62a07aadfe10155c88a484603c1422fb5e27334", "port": 443}]}], "links": {"next": "eyJhbGciOiJFZERTQSJ9.eyJub25jZSI6IlI5QUVqQ1NSdTdaczVwMW12VDhDYk1mWHRPWVRwNGJ5MEVFaTVjWUlTc0EiLCJwYWdlIjo4NjgsInJldmVyc2VkIjpmYWxzZSwic2VhcmNoX2FmdGVyIjpbMTMuNjMxNjYxLDE3NDIwOTgzNjAxMzcsIjIwMy4xNTkuMC4xOSIsImcuYWl0LmFzaWEiXSwic29ydCI6W3siX3Njb3JlIjp7Im9yZGVyIjoiZGVzYyJ9fSx7Imxhc3RfdXBkYXRlZF9hdCI6eyJtaXNzaW5nIjoiX2xhc3QiLCJtb2RlIjoibWluIiwib3JkZXIiOiJkZXNjIn19LHsiaXAiOnsibWlzc2luZyI6Il9sYXN0IiwibW9kZSI6Im1pbiIsIm9yZGVyIjoiYXNjIn19LHsibmFtZS5fX3JhdyI6eyJtaXNzaW5nIjoiX2xhc3QiLCJtb2RlIjoibWluIiwib3JkZXIiOiJhc2MifX1dLCJ2ZXJzaW9uIjoxfQ.p0VJO-JId7wDwB0W4y5Nqyngmdkunu76rwpwG1l7Zh5J1IHzuAubViFQWRdnPvM6OzHgW_UPUUXd75Ipc2gABQ", "prev": "eyJhbGciOiJFZERTQSJ9.eyJub25jZSI6IlI5QUVqQ1NSdTdaczVwMW12VDhDYk1mWHRPWVRwNGJ5MEVFaTVjWUlTc0EiLCJwYWdlIjo4NjYsInJldmVyc2VkIjp0cnVlLCJzZWFyY2hfYWZ0ZXIiOlsxMy42MzE2NjEsMTc0MjA5ODM2MDEzNywiMjAzLjE1OS4wLjE5IiwiZy5haXQuYXNpYSJdLCJzb3J0IjpbeyJfc2NvcmUiOnsib3JkZXIiOiJhc2MifX0seyJsYXN0X3VwZGF0ZWRfYXQiOnsibWlzc2luZyI6Il9maXJzdCIsIm1vZGUiOiJtaW4iLCJvcmRlciI6ImFzYyJ9fSx7ImlwIjp7Im1pc3NpbmciOiJfZmlyc3QiLCJtb2RlIjoibWluIiwib3JkZXIiOiJkZXNjIn19LHsibmFtZS5fX3JhdyI6eyJtaXNzaW5nIjoiX2ZpcnN0IiwibW9kZSI6Im1pbiIsIm9yZGVyIjoiZGVzYyJ9fV0sInZlcnNpb24iOjF9.c_NZQxYyZ-IU-f0Uhw_XX1DzsfLlevZg_68Pw95k6ps2eOIAkykcpatUuhxx2f3mlgtRkNWsNpPE5S1cAe3zBQ", 203.159.0.0/19,  4767, AIT-CS-ASN Computer Science, DNS not found,  false, 404861865097612354484303859596926869528481, C=US, O=Let's Encrypt, CN=R10,false, true, false, false, false, true, true, false, false
17:03:2025 13:10:51,TH,Khlong Luang,12120,DNS not found,203.159.0.19,443,,name": "Asian Institute of Technology", 203.159.0.0/19,  4767, AIT-CS-ASN Computer Science, DNS not found,  false, 404861865097612354484303859596926869528481, C=US, O=Let's Encrypt, CN=R10,false, true, false, false, false, true, true, false, false
17:03:2025 13:11:03,US,Phoenix,85001,DNS not found,208.91.189.67,443,, "app.cloudjet.uk", "matched_services": [{"extended_service_name": "HTTPS", "transport_protocol": "TCP", "service_name": "HTTP", "certificate": "235cb39ace01d705ca788d434dcbf46bddc9d85f0486ead2ea88c2fe4cedf24f", "port": 443}]}], "links": {"next": "eyJhbGciOiJFZERTQSJ9.eyJub25jZSI6IlI5QUVqQ1NSdTdaczVwMW12VDhDYk1mWHRPWVRwNGJ5MEVFaTVjWUlTc0EiLCJwYWdlIjo5MTMsInJldmVyc2VkIjpmYWxzZSwic2VhcmNoX2FmdGVyIjpbMTMuNTIxMzA4LDE3NDE5MDA5OTQwOTUsIjIwOC45MS4xODkuNjciLCJhcHAuY2xvdWRqZXQudWsiXSwic29ydCI6W3siX3Njb3JlIjp7Im9yZGVyIjoiZGVzYyJ9fSx7Imxhc3RfdXBkYXRlZF9hdCI6eyJtaXNzaW5nIjoiX2xhc3QiLCJtb2RlIjoibWluIiwib3JkZXIiOiJkZXNjIn19LHsiaXAiOnsibWlzc2luZyI6Il9sYXN0IiwibW9kZSI6Im1pbiIsIm9yZGVyIjoiYXNjIn19LHsibmFtZS5fX3JhdyI6eyJtaXNzaW5nIjoiX2xhc3QiLCJtb2RlIjoibWluIiwib3JkZXIiOiJhc2MifX1dLCJ2ZXJzaW9uIjoxfQ.7gJywn2qOLzTN8BNPJdU9e6856-B5c_QxMzoElM-AF_J0t9akUGKW4pjwVrijsvgwIn29c3g3SzWL8n2aRqnBA", "prev": "eyJhbGciOiJFZERTQSJ9.eyJub25jZSI6IlI5QUVqQ1NSdTdaczVwMW12VDhDYk1mWHRPWVRwNGJ5MEVFaTVjWUlTc0EiLCJwYWdlIjo5MTEsInJldmVyc2VkIjp0cnVlLCJzZWFyY2hfYWZ0ZXIiOlsxMy41MjEzMDgsMTc0MTkwMDk5NDA5NSwiMjA4LjkxLjE4OS42NyIsImFwcC5jbG91ZGpldC51ayJdLCJzb3J0IjpbeyJfc2NvcmUiOnsib3JkZXIiOiJhc2MifX0seyJsYXN0X3VwZGF0ZWRfYXQiOnsibWlzc2luZyI6Il9maXJzdCIsIm1vZGUiOiJtaW4iLCJvcmRlciI6ImFzYyJ9fSx7ImlwIjp7Im1pc3NpbmciOiJfZmlyc3QiLCJtb2RlIjoibWluIiwib3JkZXIiOiJkZXNjIn19LHsibmFtZS5fX3JhdyI6eyJtaXNzaW5nIjoiX2ZpcnN0IiwibW9kZSI6Im1pbiIsIm9yZGVyIjoiZGVzYyJ9fV0sInZlcnNpb24iOjF9.PTXdnjsTRro2FtLQ8Ez-FNVZo-Ad-dkc6q41g__052sKPY-g0qeCs6Mdge4sGpmQ_Tn1eetGVZn8uOz5b0qQCw", 208.91.189.0/24,  14315, 1GSERVERS, DNS not found,  false, 233596788273522719905828776436996763974, C=AT, O=ZeroSSL, CN=ZeroSSL ECC Domain Secure Site CA,false, true, false, false, false, true, true, false, false
17:03:2025 13:11:20,TH,Khlong Luang,12120,DNS not found,203.159.0.19,443,, "AIT-CS-ASN Computer Science"}, "ip": "203.159.0.19", "location": {"postal_code": "12120", "country_code": "TH", "city": "Khlong Luang"}, "services": [{"software": [{"cpe": "cpe:2.3:o:canonical:ubuntu_linux:*:*:*:*:*:*:*:*"}, {"cpe": "cpe:2.3:a:apache:http_server:2.4.41:*:*:*:*:*:*:*"}, {"cpe": ""}], "port": 80}, {"software": [{"cpe": "cpe:2.3:o:canonical:ubuntu_linux:*:*:*:*:*:*:*:*"}, {"cpe": "cpe:2.3:a:apache:http_server:2.4.41:*:*:*:*:*:*:*"}, {"cpe": ""}], "tls": {"certificate": {"parsed": {"signature": {"self_signed": false}, "serial_number": "264112501245388185572396810410406653457706", "issuer_dn": "C=US, O=Let's Encrypt, CN=R11"}, "names": ["g.ait.ac.th"], 203.159.0.0/19,  4767, AIT-CS-ASN Computer Science, DNS not found,  false, 264112501245388185572396810410406653457706, C=US, O=Let's Encrypt, CN=R11,false, true, false, false, false, true, true, false, false
17:03:2025 13:14:13,IN,Noida,201005,rvr_d  49-50-66-169.oid.dtctr.trpr.co,49.50.66.169,80,,Org not found, 49.50.66.0/24,  55470, CYFUTURE-AS-IN Cyfuture India Pvt. Ltd., rvr_d  49-50-66-169.oid.dtctr.trpr.co,  true, 33828967800922101326197443886575739151, CN=WIN-I2JG22N167J,false, true, false, false, false, true, true, false, false
17:03:2025 13:14:44,IN,Noida,201005,rvr_d  49-50-66-168.oid.dtctr.trpr.co,49.50.66.168,80,,Org not found, 49.50.66.0/24,  55470, CYFUTURE-AS-IN Cyfuture India Pvt. Ltd., rvr_d  49-50-66-168.oid.dtctr.trpr.co,  true, 33828967800922101326197443886575739151, CN=WIN-I2JG22N167J,false, true, false, false, false, true, true, false, false
17:03:2025 13:40:03,US,New York City,10001,DNS not found,89.117.76.40,443,report@abuseradar.com, "Private Customer", 89.117.72.0/21,  40021, NL-811-40021, DNS not found,  false, 293890199064467526078166357438070957497897, C=US, O=Let's Encrypt, CN=R11,false, true, false, true, false, true, true, false, false
17:03:2025 13:43:59,IN,Mumbai,400017,DNS not found,82.112.227.111,443,nre@hostinger.com, "Hostinger International Limited", 82.112.224.0/20,  47583, AS-HOSTINGER, DNS not found,  false, 390911846013906845830889223679018864605542, C=US, O=Let's Encrypt, CN=R11,false, true, false, false, false, false, false, false, false
17:03:2025 13:46:10,US,Council Bluffs,51502,DNS not found,35.193.23.85,443,google-cloud-compliance@google.com, "Google LLC", 35.193.16.0/20,  396982, GOOGLE-CLOUD-PLATFORM, DNS not found,  false, 347267506899950742648356640386007907560274, C=US, O=Let's Encrypt, CN=R11,false, true, true, false, false, true, true, false, false
17:03:2025 14:08:51,ES,Madrid,28004,DNS not found,5.57.226.55,443,abuse@acumbamail.com, "Acumbamail", 5.57.224.0/22,  29119, SERVIHOSTING-AS AireNetworks, DNS not found,  false, 408916022495019473828142788942785153718202, C=US, O=Let's Encrypt, CN=R10,false, true, true, true, false, true, false, false, false